[{"OBJECT_NAME":"STARLINK-34851","OBJECT_ID":"2025-259AB","EPOCH":"2026-03-09T22:23:45.640032","MEAN_MOTION":15.27600809,"ECCENTRICITY":0.00018606,"INCLINATION":43.0025,"RA_OF_ASC_NODE":273.3864,"ARG_OF_PERICENTER":268.9338,"MEAN_ANOMALY":91.13,"EPHEMERIS_TYPE":0,"CLASSIFICATION_TYPE":"U","NORAD_CAT_ID":66447,"ELEMENT_SET_NO":999,"REV_AT_EPOCH":1941,"BSTAR":0.00088989614,"MEAN_MOTION_DOT":0.00024322,"MEAN_MOTION_DDOT":0},{"OBJECT_NAME":"OBJECT D","OBJECT_ID":"2025-197D","EPOCH":"2026-03-09T23:30:56.303712","MEAN_MOTION":15.25287442,"ECCENTRICITY":0.00144425,"INCLINATION":97.4091,"RA_OF_ASC_NODE":257.3677,"ARG_OF_PERICENTER":3.398,"MEAN_ANOMALY":356.7353,"EPHEMERIS_TYPE":0,"CLASSIFICATION_TYPE":"U","NORAD_CAT_ID":65491,"ELEMENT_SET_NO":999,"REV_AT_EPOCH":2822,"BSTAR":0.00037200129,"MEAN_MOTION_DOT":9.321e-5,"MEAN_MOTION_DDOT":0}]
